[
    {
        "Altitude(m)": 590283.4965448902,
        "Argument of Periapsis(deg)": 0.0,
        "Eccentricity": 0.0,
        "Inclination(deg)": 97.0,
        "Latitude(deg)": -73.14108408250199,
        "Longitude(deg)": 116.26653767216166,
        "Mean Anomaly(deg)": 254.48280000000003,
        "RAAN(deg)": 60.0,
        "Satellite Name": "Starlink Shell 3 1741",
        "Satellite Number": 1741,
        "Semi-Major Axis(m)": 6938478.169268562,
        "Time(s)": 0
    },
    {
        "Altitude(m)": 590402.8290394071,
        "Argument of Periapsis(deg)": -0.0003965466804030246,
        "Eccentricity": 0.0,
        "Inclination(deg)": 97.0,
        "Latitude(deg)": -73.70270298488057,
        "Longitude(deg)": 115.30077757120385,
        "Mean Anomaly(deg)": 255.10827619770507,
        "RAAN(deg)": 60.000104334274006,
        "Satellite Name": "Starlink Shell 3 1741",
        "Satellite Number": 1741,
        "Semi-Major Axis(m)": 6938478.169268562,
        "Time(s)": 10
    },
    {
        "Altitude(m)": 590517.6268965589,
        "Argument of Periapsis(deg)": -0.0007930933608060492,
        "Eccentricity": 0.0,
        "Inclination(deg)": 97.0,
        "Latitude(deg)": -74.25998913565604,
        "Longitude(deg)": 114.27123480996751,
        "Mean Anomaly(deg)": 255.7337523954101,
        "RAAN(deg)": 60.00020866854802,
        "Satellite Name": "Starlink Shell 3 1741",
        "Satellite Number": 1741,
        "Semi-Major Axis(m)": 6938478.169268562,
        "Time(s)": 20
    },
    {
        "Altitude(m)": 590627.8436623154,
        "Argument of Periapsis(deg)": -0.001189640041209074,
        "Eccentricity": 0.0,
        "Inclination(deg)": 97.0,
        "Latitude(deg)": -74.81247238867299,
        "Longitude(deg)": 113.17146248556699,
        "Mean Anomaly(deg)": 256.3592285931152,
        "RAAN(deg)": 60.00031300282202,
        "Satellite Name": "Starlink Shell 3 1741",
        "Satellite Number": 1741,
        "Semi-Major Axis(m)": 6938478.169268562,
        "Time(s)": 30
    },
    {
        "Altitude(m)": 590733.4347290721,
        "Argument of Periapsis(deg)": -0.0015861867216120985,
        "Eccentricity": 0.0,
        "Inclination(deg)": 97.0,
        "Latitude(deg)": -75.35961579582077,
        "Longitude(deg)": 111.99422141024692,
        "Mean Anomaly(deg)": 256.9847047908202,
        "RAAN(deg)": 60.000417337096025,
        "Satellite Name": "Starlink Shell 3 1741",
        "Satellite Number": 1741,
        "Semi-Major Axis(m)": 6938478.169268562,
        "Time(s)": 40
    },
    {
        "Altitude(m)": 590834.3573545774,
        "Argument of Periapsis(deg)": -0.0019827334020151234,
        "Eccentricity": 0.0,
        "Inclination(deg)": 97.0,
        "Latitude(deg)": -75.9008044580295,
        "Longitude(deg)": 110.73137780580498,
        "Mean Anomaly(deg)": 257.61018098852526,
        "RAAN(deg)": 60.00052167137004,
        "Satellite Name": "Starlink Shell 3 1741",
        "Satellite Number": 1741,
        "Semi-Major Axis(m)": 6938478.169268562,
        "Time(s)": 50
    },
    {
        "Altitude(m)": 590930.5706800995,
        "Argument of Periapsis(deg)": -0.002379280082418148,
        "Eccentricity": 0.0,
        "Inclination(deg)": 97.0,
        "Latitude(deg)": -76.43533237704517,
        "Longitude(deg)": 109.37379409055808,
        "Mean Anomaly(deg)": 258.2356571862303,
        "RAAN(deg)": 60.00062600564405,
        "Satellite Name": "Starlink Shell 3 1741",
        "Satellite Number": 1741,
        "Semi-Major Axis(m)": 6938478.169268562,
        "Time(s)": 60
    },
    {
        "Altitude(m)": 591022.0357477069,
        "Argument of Periapsis(deg)": -0.002775826762821173,
        "Eccentricity": 0.0,
        "Inclination(deg)": 97.0,
        "Latitude(deg)": -76.96238698352819,
        "Longitude(deg)": 107.9112137112705,
        "Mean Anomaly(deg)": 258.86113338393534,
        "RAAN(deg)": 60.00073033991806,
        "Satellite Name": "Starlink Shell 3 1741",
        "Satellite Number": 1741,
        "Semi-Major Axis(m)": 6938478.169268562,
        "Time(s)": 70
    },
    {
        "Altitude(m)": 591108.7155167955,
        "Argument of Periapsis(deg)": -0.003172373443224197,
        "Eccentricity": 0.0,
        "Inclination(deg)": 97.0,
        "Latitude(deg)": -77.48103100238102,
        "Longitude(deg)": 106.33214324304781,
        "Mean Anomaly(deg)": 259.4866095816404,
        "RAAN(deg)": 60.00083467419207,
        "Satellite Name": "Starlink Shell 3 1741",
        "Satellite Number": 1741,
        "Semi-Major Axis(m)": 6938478.169268562,
        "Time(s)": 80
    },
    {
        "Altitude(m)": 591190.5748797806,
        "Argument of Periapsis(deg)": -0.0035689201236272223,
        "Eccentricity": 0.0,
        "Inclination(deg)": 97.0,
        "Latitude(deg)": -77.99018133108592,
        "Longitude(deg)": 104.62374299180718,
        "Mean Anomaly(deg)": 260.1120857793454,
        "RAAN(deg)": 60.00093900846607,
        "Satellite Name": "Starlink Shell 3 1741",
        "Satellite Number": 1741,
        "Semi-Major Axis(m)": 6938478.169268562,
        "Time(s)": 90
    },
    {
        "Altitude(m)": 591267.5806769412,
        "Argument of Periapsis(deg)": -0.003965466804030247,
        "Eccentricity": 0.0,
        "Inclination(deg)": 97.0,
        "Latitude(deg)": -78.48858467561497,
        "Longitude(deg)": 102.77173796478532,
        "Mean Anomaly(deg)": 260.73756197705046,
        "RAAN(deg)": 60.00104334274008,
        "Satellite Name": "Starlink Shell 3 1741",
        "Satellite Number": 1741,
        "Semi-Major Axis(m)": 6938478.169268562,
        "Time(s)": 100
    },
    {
        "Altitude(m)": 591339.7017104484,
        "Argument of Periapsis(deg)": -0.004362013484433271,
        "Eccentricity": 0.0,
        "Inclination(deg)": 97.0,
        "Latitude(deg)": -78.97478984923282,
        "Longitude(deg)": 100.76036854871477,
        "Mean Anomaly(deg)": 261.3630381747555,
        "RAAN(deg)": 60.00114767701409,
        "Satellite Name": "Starlink Shell 3 1741",
        "Satellite Number": 1741,
        "Semi-Major Axis(m)": 6938478.169268562,
        "Time(s)": 110
    },
    {
        "Altitude(m)": 591406.9087575576,
        "Argument of Periapsis(deg)": -0.004758560164836296,
        "Eccentricity": 0.0,
        "Inclination(deg)": 97.0,
        "Latitude(deg)": -79.44711694917056,
        "Longitude(deg)": 98.57241521078626,
        "Mean Anomaly(deg)": 261.98851437246054,
        "RAAN(deg)": 60.0012520112881,
        "Satellite Name": "Starlink Shell 3 1741",
        "Satellite Number": 1741,
        "Semi-Major Axis(m)": 6938478.169268562,
        "Time(s)": 120
    },
    {
        "Altitude(m)": 591469.174582966,
        "Argument of Periapsis(deg)": -0.005155106845239321,
        "Eccentricity": 0.0,
        "Inclination(deg)": 97.0,
        "Latitude(deg)": -79.90362416548324,
        "Longitude(deg)": 96.18934091579092,
        "Mean Anomaly(deg)": 262.6139905701656,
        "RAAN(deg)": 60.00135634556211,
        "Satellite Name": "Starlink Shell 3 1741",
        "Satellite Number": 1741,
        "Semi-Major Axis(m)": 6938478.169268562,
        "Time(s)": 130
    },
    {
        "Altitude(m)": 591526.4739503128,
        "Argument of Periapsis(deg)": -0.005551653525642346,
        "Eccentricity": 0.0,
        "Inclination(deg)": 97.0,
        "Latitude(deg)": -80.34207385154129,
        "Longitude(deg)": 93.59161229873307,
        "Mean Anomaly(deg)": 263.2394667678706,
        "RAAN(deg)": 60.00146067983612,
        "Satellite Name": "Starlink Shell 3 1741",
        "Satellite Number": 1741,
        "Semi-Major Axis(m)": 6938478.169268562,
        "Time(s)": 140
    },
    {
        "Altitude(m)": 591578.7836328162,
        "Argument of Periapsis(deg)": -0.005948200206045371,
        "Eccentricity": 0.0,
        "Inclination(deg)": 97.0,
        "Latitude(deg)": -80.75990081877535,
        "Longitude(deg)": 90.75928450707525,
        "Mean Anomaly(deg)": 263.8649429655757,
        "RAAN(deg)": 60.00156501411012,
        "Satellite Name": "Starlink Shell 3 1741",
        "Satellite Number": 1741,
        "Semi-Major Axis(m)": 6938478.169268562,
        "Time(s)": 150
    },
    {
        "Altitude(m)": 591626.0824231143,
        "Argument of Periapsis(deg)": -0.006344746886448394,
        "Eccentricity": 0.0,
        "Inclination(deg)": 97.0,
        "Latitude(deg)": -81.15418771776359,
        "Longitude(deg)": 87.67294720128758,
        "Mean Anomaly(deg)": 264.4904191632807,
        "RAAN(deg)": 60.001669348384134,
        "Satellite Name": "Starlink Shell 3 1741",
        "Satellite Number": 1741,
        "Semi-Major Axis(m)": 6938478.169268562,
        "Time(s)": 160
    },
    {
        "Altitude(m)": 591668.351142187,
        "Argument of Periapsis(deg)": -0.00674129356685142,
        "Eccentricity": 0.0,
        "Inclination(deg)": 97.0,
        "Latitude(deg)": -81.52165484554561,
        "Longitude(deg)": 84.31513523023925,
        "Mean Anomaly(deg)": 265.1158953609858,
        "RAAN(deg)": 60.00177368265814,
        "Satellite Name": "Starlink Shell 3 1741",
        "Satellite Number": 1741,
        "Semi-Major Axis(m)": 6938478.169268562,
        "Time(s)": 170
    },
    {
        "Altitude(m)": 591705.5726474553,
        "Argument of Periapsis(deg)": -0.007137840247254445,
        "Eccentricity": 0.0,
        "Inclination(deg)": 97.0,
        "Latitude(deg)": -81.85867456390244,
        "Longitude(deg)": 80.67229151147416,
        "Mean Anomaly(deg)": 265.7413715586908,
        "RAAN(deg)": 60.00187801693215,
        "Satellite Name": "Starlink Shell 3 1741",
        "Satellite Number": 1741,
        "Semi-Major Axis(m)": 6938478.169268562,
        "Time(s)": 180
    }
]